CCSDS_OMM_VERS = 2.0
CREATION_DATE  = 
ORIGINATOR     = 

OBJECT_NAME    = STARLINK-35871
OBJECT_ID      = 2025-268K
CENTER_NAME    = EARTH
REF_FRAME      = TEME
TIME_SYSTEM    = UTC
MEAN_ELEMENT_THEORY = SGP/SGP4

EPOCH          = 2025-12-16T07:49:47.939520
MEAN_MOTION    = 15.50642650
ECCENTRICITY   = .00015241
INCLINATION    = 42.9986
RA_OF_ASC_NODE = 100.1822
ARG_OF_PERICENTER = 143.1785
MEAN_ANOMALY   = 216.9180

EPHEMERIS_TYPE = 0
CLASSIFICATION_TYPE = U
NORAD_CAT_ID   = 66566
ELEMENT_SET_NO = 999
REV_AT_EPOCH   = 518
BSTAR          = .10563856E-2
MEAN_MOTION_DOT = .62268E-3
MEAN_MOTION_DDOT = 0

CCSDS_OMM_VERS = 2.0
CREATION_DATE  = 
ORIGINATOR     = 

OBJECT_NAME    = STARLINK-35825
OBJECT_ID      = 2025-268L
CENTER_NAME    = EARTH
REF_FRAME      = TEME
TIME_SYSTEM    = UTC
MEAN_ELEMENT_THEORY = SGP/SGP4

EPOCH          = 2025-12-15T16:21:44.113248
MEAN_MOTION    = 15.50589598
ECCENTRICITY   = .00015369
INCLINATION    = 42.9976
RA_OF_ASC_NODE = 103.9443
ARG_OF_PERICENTER = 289.9461
MEAN_ANOMALY   = 70.1233

EPHEMERIS_TYPE = 0
CLASSIFICATION_TYPE = U
NORAD_CAT_ID   = 66567
ELEMENT_SET_NO = 999
REV_AT_EPOCH   = 508
BSTAR          = .94660219E-3
MEAN_MOTION_DOT = .55608E-3
MEAN_MOTION_DDOT = 0

CCSDS_OMM_VERS = 2.0
CREATION_DATE  = 
ORIGINATOR     = 

OBJECT_NAME    = STARLINK-35803
OBJECT_ID      = 2025-268M
CENTER_NAME    = EARTH
REF_FRAME      = TEME
TIME_SYSTEM    = UTC
MEAN_ELEMENT_THEORY = SGP/SGP4

EPOCH          = 2025-12-15T16:21:14.632704
MEAN_MOTION    = 15.50582544
ECCENTRICITY   = .00009557
INCLINATION    = 42.9957
RA_OF_ASC_NODE = 103.9413
ARG_OF_PERICENTER = 297.4388
MEAN_ANOMALY   = 62.6375

EPHEMERIS_TYPE = 0
CLASSIFICATION_TYPE = U
NORAD_CAT_ID   = 66568
ELEMENT_SET_NO = 999
REV_AT_EPOCH   = 508
BSTAR          = .97560652E-3
MEAN_MOTION_DOT = .5732E-3
MEAN_MOTION_DDOT = 0

CCSDS_OMM_VERS = 2.0
CREATION_DATE  = 
ORIGINATOR     = 

OBJECT_NAME    = STARLINK-35835
OBJECT_ID      = 2025-268N
CENTER_NAME    = EARTH
REF_FRAME      = TEME
TIME_SYSTEM    = UTC
MEAN_ELEMENT_THEORY = SGP/SGP4

EPOCH          = 2025-12-15T17:53:30.134688
MEAN_MOTION    = 15.50581218
ECCENTRICITY   = .00013774
INCLINATION    = 43.0003
RA_OF_ASC_NODE = 103.5637
ARG_OF_PERICENTER = 270.1280
MEAN_ANOMALY   = 89.9422

EPHEMERIS_TYPE = 0
CLASSIFICATION_TYPE = U
NORAD_CAT_ID   = 66569
ELEMENT_SET_NO = 999
REV_AT_EPOCH   = 509
BSTAR          = .14471406E-2
MEAN_MOTION_DOT = .85494E-3
MEAN_MOTION_DDOT = 0

CCSDS_OMM_VERS = 2.0
CREATION_DATE  = 
ORIGINATOR     = 

OBJECT_NAME    = STARLINK-35834
OBJECT_ID      = 2025-268P
CENTER_NAME    = EARTH
REF_FRAME      = TEME
TIME_SYSTEM    = UTC
MEAN_ELEMENT_THEORY = SGP/SGP4

EPOCH          = 2025-12-16T07:48:19.114272
MEAN_MOTION    = 15.49673450
ECCENTRICITY   = .00028497
INCLINATION    = 43.0013
RA_OF_ASC_NODE = 100.1731
ARG_OF_PERICENTER = 41.6846
MEAN_ANOMALY   = 318.4230

EPHEMERIS_TYPE = 0
CLASSIFICATION_TYPE = U
NORAD_CAT_ID   = 66570
ELEMENT_SET_NO = 999
REV_AT_EPOCH   = 518
BSTAR          = .18064233E-2
MEAN_MOTION_DOT = .103664E-2
MEAN_MOTION_DDOT = 0

CCSDS_OMM_VERS = 2.0
CREATION_DATE  = 
ORIGINATOR     = 

OBJECT_NAME    = STARLINK-35836
OBJECT_ID      = 2025-268Q
CENTER_NAME    = EARTH
REF_FRAME      = TEME
TIME_SYSTEM    = UTC
MEAN_ELEMENT_THEORY = SGP/SGP4

EPOCH          = 2025-12-15T16:19:45.764256
MEAN_MOTION    = 15.50585283
ECCENTRICITY   = .00014873
INCLINATION    = 42.9954
RA_OF_ASC_NODE = 103.9347
ARG_OF_PERICENTER = 312.1791
MEAN_ANOMALY   = 47.8943

EPHEMERIS_TYPE = 0
CLASSIFICATION_TYPE = U
NORAD_CAT_ID   = 66571
ELEMENT_SET_NO = 999
REV_AT_EPOCH   = 508
BSTAR          = .11259195E-2
MEAN_MOTION_DOT = .66287E-3
MEAN_MOTION_DDOT = 0

CCSDS_OMM_VERS = 2.0
CREATION_DATE  = 
ORIGINATOR     = 

OBJECT_NAME    = STARLINK-35870
OBJECT_ID      = 2025-268R
CENTER_NAME    = EARTH
REF_FRAME      = TEME
TIME_SYSTEM    = UTC
MEAN_ELEMENT_THEORY = SGP/SGP4

EPOCH          = 2025-12-15T17:52:01.245504
MEAN_MOTION    = 15.50594165
ECCENTRICITY   = .00014954
INCLINATION    = 42.9995
RA_OF_ASC_NODE = 103.5566
ARG_OF_PERICENTER = 266.7473
MEAN_ANOMALY   = 93.3216

EPHEMERIS_TYPE = 0
CLASSIFICATION_TYPE = U
NORAD_CAT_ID   = 66572
ELEMENT_SET_NO = 999
REV_AT_EPOCH   = 509
BSTAR          = .95913059E-3
MEAN_MOTION_DOT = .56363E-3
MEAN_MOTION_DDOT = 0

CCSDS_OMM_VERS = 2.0
CREATION_DATE  = 
ORIGINATOR     = 

OBJECT_NAME    = STARLINK-35650
OBJECT_ID      = 2025-268S
CENTER_NAME    = EARTH
REF_FRAME      = TEME
TIME_SYSTEM    = UTC
MEAN_ELEMENT_THEORY = SGP/SGP4

EPOCH          = 2025-12-15T16:18:46.744416
MEAN_MOTION    = 15.50589212
ECCENTRICITY   = .00015462
INCLINATION    = 42.9911
RA_OF_ASC_NODE = 103.9310
ARG_OF_PERICENTER = 343.0592
MEAN_ANOMALY   = 17.0216

EPHEMERIS_TYPE = 0
CLASSIFICATION_TYPE = U
NORAD_CAT_ID   = 66573
ELEMENT_SET_NO = 999
REV_AT_EPOCH   = 508
BSTAR          = .1308297E-2
MEAN_MOTION_DOT = .77199E-3
MEAN_MOTION_DDOT = 0

CCSDS_OMM_VERS = 2.0
CREATION_DATE  = 
ORIGINATOR     = 

OBJECT_NAME    = STARLINK-35812
OBJECT_ID      = 2025-268T
CENTER_NAME    = EARTH
REF_FRAME      = TEME
TIME_SYSTEM    = UTC
MEAN_ELEMENT_THEORY = SGP/SGP4

EPOCH          = 2025-12-14T01:39:20.923488
MEAN_MOTION    = 15.50571155
ECCENTRICITY   = .00014446
INCLINATION    = 42.9999
RA_OF_ASC_NODE = 113.3431
ARG_OF_PERICENTER = 286.1846
MEAN_ANOMALY   = 73.8855

EPHEMERIS_TYPE = 0
CLASSIFICATION_TYPE = U
NORAD_CAT_ID   = 66574
ELEMENT_SET_NO = 999
REV_AT_EPOCH   = 483
BSTAR          = .2097662E-2
MEAN_MOTION_DOT = .124662E-2
MEAN_MOTION_DDOT = 0

CCSDS_OMM_VERS = 2.0
CREATION_DATE  = 
ORIGINATOR     = 

OBJECT_NAME    = STARLINK-35810
OBJECT_ID      = 2025-268U
CENTER_NAME    = EARTH
REF_FRAME      = TEME
TIME_SYSTEM    = UTC
MEAN_ELEMENT_THEORY = SGP/SGP4

EPOCH          = 2025-12-16T07:44:51.700704
MEAN_MOTION    = 15.51470242
ECCENTRICITY   = .00055853
INCLINATION    = 42.9985
RA_OF_ASC_NODE = 100.1537
ARG_OF_PERICENTER = 256.7988
MEAN_ANOMALY   = 103.2250

EPHEMERIS_TYPE = 0
CLASSIFICATION_TYPE = U
NORAD_CAT_ID   = 66575
ELEMENT_SET_NO = 999
REV_AT_EPOCH   = 518
BSTAR          = .16562465E-2
MEAN_MOTION_DOT = .101316E-2
MEAN_MOTION_DDOT = 0

CCSDS_OMM_VERS = 2.0
CREATION_DATE  = 
ORIGINATOR     = 

OBJECT_NAME    = STARLINK-35814
OBJECT_ID      = 2025-268V
CENTER_NAME    = EARTH
REF_FRAME      = TEME
TIME_SYSTEM    = UTC
MEAN_ELEMENT_THEORY = SGP/SGP4

EPOCH          = 2025-12-16T07:45:20.642112
MEAN_MOTION    = 15.49844423
ECCENTRICITY   = .00043381
INCLINATION    = 42.9986
RA_OF_ASC_NODE = 100.1557
ARG_OF_PERICENTER = 85.4789
MEAN_ANOMALY   = 274.6567

EPHEMERIS_TYPE = 0
CLASSIFICATION_TYPE = U
NORAD_CAT_ID   = 66576
ELEMENT_SET_NO = 999
REV_AT_EPOCH   = 518
BSTAR          = .12897593E-2
MEAN_MOTION_DOT = .74098E-3
MEAN_MOTION_DDOT = 0

CCSDS_OMM_VERS = 2.0
CREATION_DATE  = 
ORIGINATOR     = 

OBJECT_NAME    = STARLINK-35815
OBJECT_ID      = 2025-268W
CENTER_NAME    = EARTH
REF_FRAME      = TEME
TIME_SYSTEM    = UTC
MEAN_ELEMENT_THEORY = SGP/SGP4

EPOCH          = 2025-12-16T07:44:22.010208
MEAN_MOTION    = 15.50639124
ECCENTRICITY   = .00008111
INCLINATION    = 42.9989
RA_OF_ASC_NODE = 100.1505
ARG_OF_PERICENTER = 168.9776
MEAN_ANOMALY   = 191.1102

EPHEMERIS_TYPE = 0
CLASSIFICATION_TYPE = U
NORAD_CAT_ID   = 66577
ELEMENT_SET_NO = 999
REV_AT_EPOCH   = 518
BSTAR          = .1263067E-2
MEAN_MOTION_DOT = .74625E-3
MEAN_MOTION_DDOT = 0

