STARLINK-35871          
1 66566U 25268K   25350.32624930  .00062268  00000+0  10564-2 0  9997
2 66566  42.9986 100.1822 0001524 143.1785 216.9180 15.50642650  5189
STARLINK-35825          
1 66567U 25268L   25349.68176057  .00055608  00000+0  94660-3 0  9997
2 66567  42.9976 103.9443 0001536 289.9461  70.1233 15.50589598  5081
STARLINK-35803          
1 66568U 25268M   25349.68141936  .00057320  00000+0  97561-3 0  9992
2 66568  42.9957 103.9413 0000955 297.4388  62.6375 15.50582544  5081
STARLINK-35835          
1 66569U 25268N   25349.74548767  .00085494  00000+0  14471-2 0  9994
2 66569  43.0003 103.5637 0001377 270.1280  89.9422 15.50581218  5091
STARLINK-35834          
1 66570U 25268P   25350.32522123  .00103664  00000+0  18064-2 0  9992
2 66570  43.0013 100.1731 0002849  41.6846 318.4230 15.49673450  5181
STARLINK-35836          
1 66571U 25268Q   25349.68039079  .00066287  00000+0  11259-2 0  9991
2 66571  42.9954 103.9347 0001487 312.1791  47.8943 15.50585283  5081
STARLINK-35870          
1 66572U 25268R   25349.74445886  .00056363  00000+0  95913-3 0  9990
2 66572  42.9995 103.5566 0001495 266.7473  93.3216 15.50594165  5095
STARLINK-35650          
1 66573U 25268S   25349.67970769  .00077199  00000+0  13083-2 0  9993
2 66573  42.9911 103.9310 0001546 343.0592  17.0216 15.50589212  5082
STARLINK-35812          
1 66574U 25268T   25348.06899217  .00124662  00000+0  20977-2 0  9992
2 66574  42.9999 113.3431 0001444 286.1846  73.8855 15.50571155  4832
STARLINK-35810          
1 66575U 25268U   25350.32282061  .00101316  00000+0  16562-2 0  9994
2 66575  42.9985 100.1537 0005585 256.7988 103.2250 15.51470242  5181
STARLINK-35814          
1 66576U 25268V   25350.32315558  .00074098  00000+0  12898-2 0  9997
2 66576  42.9986 100.1557 0004338  85.4789 274.6567 15.49844423  5183
STARLINK-35815          
1 66577U 25268W   25350.32247697  .00074625  00000+0  12631-2 0  9997
2 66577  42.9989 100.1505 0000811 168.9776 191.1102 15.50639124  5185
